ONEWEB-0427             
1 50499U 21132AG  25222.56169891  .00000073  00000+0  15198-3 0  9990
2 50499  87.9128  37.1287 0001749  98.3067 261.8264 13.18686878180673
ONEWEB-0429             
1 50500U 21132AH  25222.47263662  .00000003  00000+0 -25992-4 0  9992
2 50500  87.9134  37.1756 0001819  86.3112 273.8228 13.18686515180637
ONEWEB-0430             
1 50501U 21132AJ  25222.53696537 -.00000009  00000+0 -54535-4 0  9993
2 50501  87.9136  37.1568 0001587  85.1778 274.9536 13.18685427180688
ONEWEB-0432             
1 50502U 21132AK  25222.49264806  .00000055  00000+0  10610-3 0  9993
2 50502  87.9123  37.1465 0001224 119.3527 240.7728 13.18688640180630
ONEWEB-0440             
1 50503U 21132AL  25222.48088993  .00000005  00000+0 -21251-4 0  9994
2 50503  87.9131  37.1569 0002195  86.6354 273.5029 13.18686925180628
ONEWEB-0450             
1 50504U 21132AM  25222.47443809  .00000005  00000+0 -20291-4 0  9998
2 50504  87.9131  37.1843 0001786  81.5848 278.5487 13.18686132180657
ONEWEB-0410             
1 51622U 22012A   25222.56241296  .00000036  00000+0  60492-4 0  9994
2 51622  87.9034  67.6564 0002301 126.0643 234.0702 13.17648994172797
ONEWEB-0411             
1 51623U 22012B   25222.61975765 -.00000256  00000+0 -77024-3 0  9990
2 51623  87.8789  98.2124 0001390  61.8666 298.2602 13.10376394168616
